[
    {
        "Altitude(m)": 576964.6658967051,
        "Argument of Periapsis(deg)": -0.03013754771062987,
        "Eccentricity": 0.0,
        "Inclination(deg)": 97.0,
        "Latitude(deg)": 82.9736154496252,
        "Longitude(deg)": 159.0701669820751,
        "Mean Anomaly(deg)": 90.98449102558332,
        "RAAN(deg)": 0.007929404824681026,
        "Satellite Name": "Starlink Shell 3 1591",
        "Satellite Number": 1591,
        "Semi-Major Axis(m)": 6938478.169268562,
        "Time(s)": 760
    },
    {
        "Altitude(m)": 576957.8967561425,
        "Argument of Periapsis(deg)": -0.030534094391032898,
        "Eccentricity": 0.0,
        "Inclination(deg)": 97.0,
        "Latitude(deg)": 82.86325806965695,
        "Longitude(deg)": 154.05745790817963,
        "Mean Anomaly(deg)": 91.60996722328836,
        "RAAN(deg)": 0.008033739098689987,
        "Satellite Name": "Starlink Shell 3 1591",
        "Satellite Number": 1591,
        "Semi-Major Axis(m)": 6938478.169268562,
        "Time(s)": 770
    },
    {
        "Altitude(m)": 576947.7550961627,
        "Argument of Periapsis(deg)": -0.030930641071435925,
        "Eccentricity": 0.0,
        "Inclination(deg)": 97.0,
        "Latitude(deg)": 82.70155611408839,
        "Longitude(deg)": 149.22950803023076,
        "Mean Anomaly(deg)": 92.23544342099339,
        "RAAN(deg)": 0.008138073372698949,
        "Satellite Name": "Starlink Shell 3 1591",
        "Satellite Number": 1591,
        "Semi-Major Axis(m)": 6938478.169268562,
        "Time(s)": 780
    },
    {
        "Altitude(m)": 576934.2466619351,
        "Argument of Periapsis(deg)": -0.031327187751838945,
        "Eccentricity": 0.0,
        "Inclination(deg)": 97.0,
        "Latitude(deg)": 82.4918246242579,
        "Longitude(deg)": 144.63754544190948,
        "Mean Anomaly(deg)": 92.86091961869845,
        "RAAN(deg)": 0.008242407646707908,
        "Satellite Name": "Starlink Shell 3 1591",
        "Satellite Number": 1591,
        "Semi-Major Axis(m)": 6938478.169268562,
        "Time(s)": 790
    },
    {
        "Altitude(m)": 576917.3790954464,
        "Argument of Periapsis(deg)": -0.031723734432241975,
        "Eccentricity": 0.0,
        "Inclination(deg)": 97.0,
        "Latitude(deg)": 82.23795383662068,
        "Longitude(deg)": 140.31630519903678,
        "Mean Anomaly(deg)": 93.48639581640349,
        "RAAN(deg)": 0.00834674192071687,
        "Satellite Name": "Starlink Shell 3 1591",
        "Satellite Number": 1591,
        "Semi-Major Axis(m)": 6938478.169268562,
        "Time(s)": 800
    },
    {
        "Altitude(m)": 576897.1619319447,
        "Argument of Periapsis(deg)": -0.032120281112645,
        "Eccentricity": 0.0,
        "Inclination(deg)": 97.0,
        "Latitude(deg)": 81.94411314849815,
        "Longitude(deg)": 136.28472465763718,
        "Mean Anomaly(deg)": 94.11187201410854,
        "RAAN(deg)": 0.008451076194725831,
        "Satellite Name": "Starlink Shell 3 1591",
        "Satellite Number": 1591,
        "Semi-Major Axis(m)": 6938478.169268562,
        "Time(s)": 810
    },
    {
        "Altitude(m)": 576873.6065954337,
        "Argument of Periapsis(deg)": -0.03251682779304802,
        "Eccentricity": 0.0,
        "Inclination(deg)": 97.0,
        "Latitude(deg)": 81.61450045044171,
        "Longitude(deg)": 132.54825899468918,
        "Mean Anomaly(deg)": 94.73734821181358,
        "RAAN(deg)": 0.00855541046873479,
        "Satellite Name": "Starlink Shell 3 1591",
        "Satellite Number": 1591,
        "Semi-Major Axis(m)": 6938478.169268562,
        "Time(s)": 820
    },
    {
        "Altitude(m)": 576846.726393348,
        "Argument of Periapsis(deg)": -0.032913374473451044,
        "Eccentricity": 0.0,
        "Inclination(deg)": 97.0,
        "Latitude(deg)": 81.25315565393797,
        "Longitude(deg)": 129.10194077275034,
        "Mean Anomaly(deg)": 95.36282440951862,
        "RAAN(deg)": 0.008659744742743752,
        "Satellite Name": "Starlink Shell 3 1591",
        "Satellite Number": 1591,
        "Semi-Major Axis(m)": 6938478.169268562,
        "Time(s)": 830
    },
    {
        "Altitude(m)": 576816.5365102941,
        "Argument of Periapsis(deg)": -0.03330992115385407,
        "Eccentricity": 0.0,
        "Inclination(deg)": 97.0,
        "Latitude(deg)": 80.8638395934748,
        "Longitude(deg)": 125.93348563524823,
        "Mean Anomaly(deg)": 95.98830060722368,
        "RAAN(deg)": 0.008764079016752713,
        "Satellite Name": "Starlink Shell 3 1591",
        "Satellite Number": 1591,
        "Semi-Major Axis(m)": 6938478.169268562,
        "Time(s)": 840
    },
    {
        "Altitude(m)": 576783.0540009335,
        "Argument of Periapsis(deg)": -0.0337064678342571,
        "Eccentricity": 0.0,
        "Inclination(deg)": 97.0,
        "Latitude(deg)": 80.4499687197184,
        "Longitude(deg)": 123.0260149017971,
        "Mean Anomaly(deg)": 96.61377680492872,
        "RAAN(deg)": 0.008868413290761674,
        "Satellite Name": "Starlink Shell 3 1591",
        "Satellite Number": 1591,
        "Semi-Major Axis(m)": 6938478.169268562,
        "Time(s)": 850
    },
    {
        "Altitude(m)": 576746.2977819967,
        "Argument of Periapsis(deg)": -0.03410301451466012,
        "Eccentricity": 0.0,
        "Inclination(deg)": 97.0,
        "Latitude(deg)": 80.0145917907448,
        "Longitude(deg)": 120.36021206947028,
        "Mean Anomaly(deg)": 97.23925300263376,
        "RAAN(deg)": 0.008972747564770634,
        "Satellite Name": "Starlink Shell 3 1591",
        "Satellite Number": 1591,
        "Semi-Major Axis(m)": 6938478.169268562,
        "Time(s)": 860
    },
    {
        "Altitude(m)": 576706.2886233744,
        "Argument of Periapsis(deg)": -0.034499561195063144,
        "Eccentricity": 0.0,
        "Inclination(deg)": 97.0,
        "Latitude(deg)": 79.56039496497806,
        "Longitude(deg)": 117.915903515893,
        "Mean Anomaly(deg)": 97.86472920033881,
        "RAAN(deg)": 0.009077081838779597,
        "Satellite Name": "Starlink Shell 3 1591",
        "Satellite Number": 1591,
        "Semi-Major Axis(m)": 6938478.169268562,
        "Time(s)": 870
    },
    {
        "Altitude(m)": 576663.0491383964,
        "Argument of Periapsis(deg)": -0.03489610787546617,
        "Eccentricity": 0.0,
        "Inclination(deg)": 97.0,
        "Latitude(deg)": 79.08972406410271,
        "Longitude(deg)": 115.67313295064082,
        "Mean Anomaly(deg)": 98.49020539804384,
        "RAAN(deg)": 0.009181416112788556,
        "Satellite Name": "Starlink Shell 3 1591",
        "Satellite Number": 1591,
        "Semi-Major Axis(m)": 6938478.169268562,
        "Time(s)": 880
    },
    {
        "Altitude(m)": 576616.603773203,
        "Argument of Periapsis(deg)": -0.0352926545558692,
        "Eccentricity": 0.0,
        "Inclination(deg)": 97.0,
        "Latitude(deg)": 78.6046157239059,
        "Longitude(deg)": 113.6128400296954,
        "Mean Anomaly(deg)": 99.11568159574891,
        "RAAN(deg)": 0.009285750386797516,
        "Satellite Name": "Starlink Shell 3 1591",
        "Satellite Number": 1591,
        "Semi-Major Axis(m)": 6938478.169268562,
        "Time(s)": 890
    },
    {
        "Altitude(m)": 576566.9787952559,
        "Argument of Periapsis(deg)": -0.035689201236272214,
        "Eccentricity": 0.0,
        "Inclination(deg)": 97.0,
        "Latitude(deg)": 78.10683184581809,
        "Longitude(deg)": 111.71724652915844,
        "Mean Anomaly(deg)": 99.74115779345394,
        "RAAN(deg)": 0.009390084660806479,
        "Satellite Name": "Starlink Shell 3 1591",
        "Satellite Number": 1591,
        "Semi-Major Axis(m)": 6938478.169268562,
        "Time(s)": 900
    },
    {
        "Altitude(m)": 576514.2022810021,
        "Argument of Periapsis(deg)": -0.036085747916675244,
        "Eccentricity": 0.0,
        "Inclination(deg)": 97.0,
        "Latitude(deg)": 77.59789387737901,
        "Longitude(deg)": 109.97003767093197,
        "Mean Anomaly(deg)": 100.36663399115895,
        "RAAN(deg)": 0.009494418934815438,
        "Satellite Name": "Starlink Shell 3 1591",
        "Satellite Number": 1591,
        "Semi-Major Axis(m)": 6938478.169268562,
        "Time(s)": 910
    },
    {
        "Altitude(m)": 576458.3041026582,
        "Argument of Periapsis(deg)": -0.03648229459707827,
        "Eccentricity": 0.0,
        "Inclination(deg)": 97.0,
        "Latitude(deg)": 77.07911496244361,
        "Longitude(deg)": 108.35641074284322,
        "Mean Anomaly(deg)": 100.99211018886402,
        "RAAN(deg)": 0.0095987532088244,
        "Satellite Name": "Starlink Shell 3 1591",
        "Satellite Number": 1591,
        "Semi-Major Axis(m)": 6938478.169268562,
        "Time(s)": 920
    },
    {
        "Altitude(m)": 576399.315914167,
        "Argument of Periapsis(deg)": -0.0368788412774813,
        "Eccentricity": 0.0,
        "Inclination(deg)": 97.0,
        "Latitude(deg)": 76.5516290080286,
        "Longitude(deg)": 106.86303997190689,
        "Mean Anomaly(deg)": 101.61758638656907,
        "RAAN(deg)": 0.009703087482833361,
        "Satellite Name": "Starlink Shell 3 1591",
        "Satellite Number": 1591,
        "Semi-Major Axis(m)": 6938478.169268562,
        "Time(s)": 930
    },
    {
        "Altitude(m)": 576337.2711362838,
        "Argument of Periapsis(deg)": -0.037275387957884314,
        "Eccentricity": 0.0,
        "Inclination(deg)": 97.0,
        "Latitude(deg)": 76.01641634286199,
        "Longitude(deg)": 105.47799134620854,
        "Mean Anomaly(deg)": 102.2430625842741,
        "RAAN(deg)": 0.00980742175684232,
        "Satellite Name": "Starlink Shell 3 1591",
        "Satellite Number": 1591,
        "Semi-Major Axis(m)": 6938478.169268562,
        "Time(s)": 940
    }
]